start=new Date('2022-09-29T00:00:00.000Z').valueOf();
sats=[{"OBJECT_TYPE":"PAYLOAD","SITE":"AFETR","ARG_OF_PERICENTER":"85.6811","INCLINATION":"53.0569","OBJECT_ID":"2020-019AK","DECAY_DATE":null,"FILE":"3585280","RA_OF_ASC_NODE":"38.2981","MEAN_MOTION_DOT":"-0.00002536","MEAN_ANOMALY":"274.4321","MEAN_MOTION_DDOT":"0.0000000000000","ECCENTRICITY":"0.00012540","RCS_SIZE":"LARGE","PERIAPSIS":"546.434","GP_ID":"213662992","NORAD_CAT_ID":"45393","EPOCH":"2022-09-27T17:33:52.924320","CLASSIFICATION_TYPE":"U","MEAN_MOTION":"15.06370899","CENTER_NAME":"EARTH","SEMIMAJOR_AXIS":"6925.438","REV_AT_EPOCH":"14001","REF_FRAME":"TEME","LAUNCH_DATE":"2020-03-18","BSTAR":"-0.00015152000000","TIME_SYSTEM":"UTC","TLE_LINE2":"2 45393  53.0569  38.2981 0001254  85.6811 274.4321 15.06370899140013","PERIOD":"95.594","TLE_LINE1":"1 45393U 20019AK  22270.73186255 -.00002536  00000-0 -15152-3 0  9991","MEAN_ELEMENT_THEORY":"SGP4","EPHEMERIS_TYPE":"0","APOAPSIS":"548.171","COUNTRY_CODE":"US","ELEMENT_SET_NO":"999","OBJECT_NAME":"STARLINK-1291"},{"MEAN_ELEMENT_THEORY":"SGP4","APOAPSIS":"548.161","EPHEMERIS_TYPE":"0","COUNTRY_CODE":"US","OBJECT_NAME":"STARLINK-1292","ELEMENT_SET_NO":"999","SEMIMAJOR_AXIS":"6925.344","CENTER_NAME":"EARTH","MEAN_MOTION":"15.06401459","CLASSIFICATION_TYPE":"U","REV_AT_EPOCH":"14010","BSTAR":"0.00014323000000","TIME_SYSTEM":"UTC","LAUNCH_DATE":"2020-03-18","REF_FRAME":"TEME","TLE_LINE1":"1 45394U 20019AL  22271.49114083  .00001853  00000-0  14323-3 0  9994","PERIOD":"95.592","TLE_LINE2":"2 45394  53.0565  34.9059 0001375  85.3491 274.7655 15.06401459140104","MEAN_ANOMALY":"274.7655","MEAN_MOTION_DOT":"0.00001853","FILE":"3586039","RA_OF_ASC_NODE":"34.9059","ECCENTRICITY":"0.00013750","MEAN_MOTION_DDOT":"0.0000000000000","EPOCH":"2022-09-28T11:47:14.567712","NORAD_CAT_ID":"45394","GP_ID":"213706454","PERIAPSIS":"546.257","RCS_SIZE":"LARGE","OBJECT_TYPE":"PAYLOAD","INCLINATION":"53.0565","ARG_OF_PERICENTER":"85.3491","SITE":"AFETR","DECAY_DATE":null,"OBJECT_ID":"2020-019AL"},{"OBJECT_NAME":"STARLINK-1297","ELEMENT_SET_NO":"999","COUNTRY_CODE":"US","APOAPSIS":"548.086","EPHEMERIS_TYPE":"0","MEAN_ELEMENT_THEORY":"SGP4","TLE_LINE1":"1 45395U 20019AM  22271.52063112  .00001799  00000-0  13969-3 0  9999","TLE_LINE2":"2 45395  53.0554  34.7516 0001228  84.0431 276.0698 15.06392849139557","PERIOD":"95.593","BSTAR":"0.00013969000000","TIME_SYSTEM":"UTC","LAUNCH_DATE":"2020-03-18","REF_FRAME":"TEME","REV_AT_EPOCH":"13955","CENTER_NAME":"EARTH","SEMIMAJOR_AXIS":"6925.370","CLASSIFICATION_TYPE":"U","MEAN_MOTION":"15.06392849","EPOCH":"2022-09-28T12:29:42.528768","NORAD_CAT_ID":"45395","GP_ID":"213706203","PERIAPSIS":"546.385","RCS_SIZE":"LARGE","MEAN_MOTION_DDOT":"0.0000000000000","ECCENTRICITY":"0.00012280","MEAN_ANOMALY":"276.0698","MEAN_MOTION_DOT":"0.00001799","RA_OF_ASC_NODE":"34.7516","FILE":"3586039","DECAY_DATE":null,"OBJECT_ID":"2020-019AM","INCLINATION":"53.0554","ARG_OF_PERICENTER":"84.0431","SITE":"AFETR","OBJECT_TYPE":"PAYLOAD"},{"REV_AT_EPOCH":"14008","CLASSIFICATION_TYPE":"U","MEAN_MOTION":"15.06406523","SEMIMAJOR_AXIS":"6925.329","CENTER_NAME":"EARTH","TLE_LINE2":"2 45396  53.0558  34.8354 0001212  77.5786 282.5338 15.06406523140084","PERIOD":"95.592","TLE_LINE1":"1 45396U 20019AN  22271.50218792  .00001547  00000-0  12271-3 0  9990","BSTAR":"0.00012271000000","TIME_SYSTEM":"UTC","REF_FRAME":"TEME","LAUNCH_DATE":"2020-03-18","APOAPSIS":"548.033","EPHEMERIS_TYPE":"0","MEAN_ELEMENT_THEORY":"SGP4","ELEMENT_SET_NO":"999","OBJECT_NAME":"STARLINK-1303","COUNTRY_CODE":"US","OBJECT_TYPE":"PAYLOAD","DECAY_DATE":null,"OBJECT_ID":"2020-019AN","ARG_OF_PERICENTER":"77.5786","INCLINATION":"53.0558","SITE":"AFETR","ECCENTRICITY":"0.00012120","MEAN_MOTION_DDOT":"0.0000000000000","MEAN_MOTION_DOT":"0.00001547","MEAN_ANOMALY":"282.5338","FILE":"3586039","RA_OF_ASC_NODE":"34.8354","NORAD_CAT_ID":"45396","EPOCH":"2022-09-28T12:03:09.036288","RCS_SIZE":"LARGE","PERIAPSIS":"546.354","GP_ID":"213707453"},{"REV_AT_EPOCH":"14019","MEAN_MOTION":"15.06423796","CLASSIFICATION_TYPE":"U","CENTER_NAME":"EARTH","SEMIMAJOR_AXIS":"6925.276","PERIOD":"95.591","TLE_LINE2":"2 45397  53.0561  34.7790 0001203  81.9190 278.1936 15.06423796140198","TLE_LINE1":"1 45397U 20019AP  22271.51325135  .00003530  00000-0  25559-3 0  9999","REF_FRAME":"TEME","LAUNCH_DATE":"2020-03-18","BSTAR":"0.00025559000000","TIME_SYSTEM":"UTC","EPHEMERIS_TYPE":"0","APOAPSIS":"547.974","MEAN_ELEMENT_THEORY":"SGP4","ELEMENT_SET_NO":"999","OBJECT_NAME":"STARLINK-1307","COUNTRY_CODE":"US","OBJECT_TYPE":"PAYLOAD","OBJECT_ID":"2020-019AP","DECAY_DATE":null,"SITE":"AFETR","ARG_OF_PERICENTER":"81.9190","INCLINATION":"53.0561","MEAN_MOTION_DDOT":"0.0000000000000","ECCENTRICITY":"0.00012030","RA_OF_ASC_NODE":"34.7790","FILE":"3586039","MEAN_MOTION_DOT":"0.00003530","MEAN_ANOMALY":"278.1936","RCS_SIZE":"LARGE","PERIAPSIS":"546.308","GP_ID":"213707192","NORAD_CAT_ID":"45397","EPOCH":"2022-09-28T12:19:04.916640"},{"INCLINATION":"53.0573","ARG_OF_PERICENTER":"85.0523","SITE":"AFETR","DECAY_DATE":null,"OBJECT_ID":"2020-019AQ","OBJECT_TYPE":"PAYLOAD","EPOCH":"2022-09-28T18:30:37.664064","NORAD_CAT_ID":"45398","GP_ID":"213761840","RCS_SIZE":"LARGE","PERIAPSIS":"546.264","MEAN_ANOMALY":"275.0625","MEAN_MOTION_DOT":"-0.00000414","RA_OF_ASC_NODE":"33.6355","FILE":"3586258","ECCENTRICITY":"0.00013990","MEAN_MOTION_DDOT":"0.0000000000000","BSTAR":"-0.00000893300000","TIME_SYSTEM":"UTC","LAUNCH_DATE":"2020-03-18","REF_FRAME":"TEME","TLE_LINE1":"1 45398U 20019AQ  22271.77126926 -.00000414  00000-0 -89330-5 0  9994","TLE_LINE2":"2 45398  53.0573  33.6355 0001399  85.0523 275.0625 15.06393557140167","PERIOD":"95.593","SEMIMAJOR_AXIS":"6925.368","CENTER_NAME":"EARTH","CLASSIFICATION_TYPE":"U","MEAN_MOTION":"15.06393557","REV_AT_EPOCH":"14016","COUNTRY_CODE":"US","OBJECT_NAME":"STARLINK-1312","ELEMENT_SET_NO":"999","MEAN_ELEMENT_THEORY":"SGP4","APOAPSIS":"548.202","EPHEMERIS_TYPE":"0"},{"CLASSIFICATION_TYPE":"U","MEAN_MOTION":"15.06408047","SEMIMAJOR_AXIS":"6925.324","CENTER_NAME":"EARTH","REV_AT_EPOCH":"14036","REF_FRAME":"TEME","LAUNCH_DATE":"2020-03-18","BSTAR":"0.00004053500000","TIME_SYSTEM":"UTC","TLE_LINE2":"2 45399  53.0556  23.4337 0001362  79.7872 280.3271 15.06408047140362","PERIOD":"95.592","TLE_LINE1":"1 45399U 20019AR  22271.81272883  .00000322  00000-0  40535-4 0  9993","MEAN_ELEMENT_THEORY":"SGP4","EPHEMERIS_TYPE":"0","APOAPSIS":"548.132","COUNTRY_CODE":"US","ELEMENT_SET_NO":"999","OBJECT_NAME":"STARLINK-1255","OBJECT_TYPE":"PAYLOAD","SITE":"AFETR","ARG_OF_PERICENTER":"79.7872","INCLINATION":"53.0556","OBJECT_ID":"2020-019AR","DECAY_DATE":null,"FILE":"3586258","RA_OF_ASC_NODE":"23.4337","MEAN_MOTION_DOT":"0.00000322","MEAN_ANOMALY":"280.3271","MEAN_MOTION_DDOT":"0.0000000000000","ECCENTRICITY":"0.00013620","PERIAPSIS":"546.246","RCS_SIZE":"LARGE","GP_ID":"213762090","NORAD_CAT_ID":"45399","EPOCH":"2022-09-28T19:30:19.770912"},{"ARG_OF_PERICENTER":"75.7920","INCLINATION":"53.0569","SITE":"AFETR","DECAY_DATE":null,"OBJECT_ID":"2020-019AS","OBJECT_TYPE":"PAYLOAD","NORAD_CAT_ID":"45400","EPOCH":"2022-09-28T18:16:00.547680","PERIAPSIS":"546.239","RCS_SIZE":"LARGE","GP_ID":"213763339","MEAN_MOTION_DOT":"0.00002000","MEAN_ANOMALY":"284.3221","RA_OF_ASC_NODE":"23.6776","FILE":"3586258","ECCENTRICITY":"0.00013640","MEAN_MOTION_DDOT":"0.0000000000000","BSTAR":"0.00015309000000","TIME_SYSTEM":"UTC","REF_FRAME":"TEME","LAUNCH_DATE":"2020-03-18","TLE_LINE2":"2 45400  53.0569  23.6776 0001364  75.7920 284.3221 15.06409806140284","PERIOD":"95.592","TLE_LINE1":"1 45400U 20019AS  22271.76111745  .00002000  00000-0  15309-3 0  9994","CLASSIFICATION_TYPE":"U","MEAN_MOTION":"15.06409806","CENTER_NAME":"EARTH","SEMIMAJOR_AXIS":"6925.319","REV_AT_EPOCH":"14028","COUNTRY_CODE":"US","ELEMENT_SET_NO":"999","OBJECT_NAME":"STARLINK-1213","MEAN_ELEMENT_THEORY":"SGP4","APOAPSIS":"548.128","EPHEMERIS_TYPE":"0"},{"CENTER_NAME":"EARTH","SEMIMAJOR_AXIS":"6925.336","MEAN_MOTION":"15.06404144","CLASSIFICATION_TYPE":"U","REV_AT_EPOCH":"14031","BSTAR":"0.00014566000000","TIME_SYSTEM":"UTC","LAUNCH_DATE":"2020-03-18","REF_FRAME":"TEME","TLE_LINE1":"1 45401U 20019AT  22271.49205615  .00001889  00000-0  14566-3 0  9993","PERIOD":"95.592","TLE_LINE2":"2 45401  53.0561  24.8963 0001724  78.5780 281.5403 15.06404144140318","MEAN_ELEMENT_THEORY":"SGP4","APOAPSIS":"548.395","EPHEMERIS_TYPE":"0","COUNTRY_CODE":"US","OBJECT_NAME":"STARLINK-1256","ELEMENT_SET_NO":"999","OBJECT_TYPE":"PAYLOAD","INCLINATION":"53.0561","ARG_OF_PERICENTER":"78.5780","SITE":"AFETR","DECAY_DATE":null,"OBJECT_ID":"2020-019AT","MEAN_ANOMALY":"281.5403","MEAN_MOTION_DOT":"0.00001889","FILE":"3586039","RA_OF_ASC_NODE":"24.8963","MEAN_MOTION_DDOT":"0.0000000000000","ECCENTRICITY":"0.00017240","EPOCH":"2022-09-28T11:48:33.651360","NORAD_CAT_ID":"45401","GP_ID":"213707691","RCS_SIZE":"LARGE","PERIAPSIS":"546.007"},{"MEAN_ANOMALY":"283.4726","MEAN_MOTION_DOT":"0.00003160","FILE":"3586258","RA_OF_ASC_NODE":"23.7079","MEAN_MOTION_DDOT":"0.0000000000000","ECCENTRICITY":"0.00015660","EPOCH":"2022-09-28T18:04:03.667008","NORAD_CAT_ID":"45402","GP_ID":"213762341","PERIAPSIS":"546.175","RCS_SIZE":"LARGE","OBJECT_TYPE":"PAYLOAD","INCLINATION":"53.0585","ARG_OF_PERICENTER":"76.6437","SITE":"AFETR","DECAY_DATE":null,"OBJECT_ID":"2020-019AU","MEAN_ELEMENT_THEORY":"SGP4","APOAPSIS":"548.344","EPHEMERIS_TYPE":"0","COUNTRY_CODE":"US","OBJECT_NAME":"STARLINK-1257","ELEMENT_SET_NO":"999","CENTER_NAME":"EARTH","SEMIMAJOR_AXIS":"6925.395","CLASSIFICATION_TYPE":"U","MEAN_MOTION":"15.06384896","REV_AT_EPOCH":"14036","BSTAR":"0.00023104000000","TIME_SYSTEM":"UTC","LAUNCH_DATE":"2020-03-18","REF_FRAME":"TEME","TLE_LINE1":"1 45402U 20019AU  22271.75282022  .00003160  00000-0  23104-3 0  9992","TLE_LINE2":"2 45402  53.0585  23.7079 0001566  76.6437 283.4726 15.06384896140368","PERIOD":"95.593"}];
